{
"type": "FeatureCollection",
"name": "itineraries_reduced_with_long_name",
"crs": { "type": "name", "properties": { "name": "urn:ogc:def:crs:OGC:1.3:CRS84" } },
"features": [
{ "type": "Feature", "properties": { "itin_idx": 0, "totalTime": 1966, "walkTime": 472, "transitTime": 721, "waitingTime": 773, "walkDistance": 618.5298059666917, "leg_id": 0, "route_id": "WALK", "mode": "WALK", "fromStopCode": "", "fromName": "Origin", "toStopCode": "4566", "toName": "SE Powell & 112th", "route_id_combo": "9 to 72", "route_long_name": "WALK", "dropdown_route": "WALK - WALK", "route_color": "#bf5f58" }, "geometry": { "type": "MultiLineString", "coordinates": [ [ [ -122.54685, 45.49474 ], [ -122.54685, 45.49493 ], [ -122.54713, 45.49493 ], [ -122.5479, 45.49493 ], [ -122.54799, 45.49493 ], [ -122.54799, 45.49501 ], [ -122.54799, 45.49564 ], [ -122.54799, 45.49581 ], [ -122.54799, 45.49594 ], [ -122.54799, 45.496 ], [ -122.54799, 45.49604 ], [ -122.548, 45.49615 ], [ -122.54801, 45.49627 ], [ -122.54801, 45.49631 ], [ -122.54801, 45.49635 ], [ -122.54802, 45.49645 ], [ -122.54803, 45.49655 ], [ -122.54818, 45.49654 ], [ -122.54852, 45.49651 ], [ -122.54853, 45.49651 ] ], [ [ -122.57919, 45.49757 ], [ -122.57933, 45.49758 ], [ -122.57933, 45.49746 ], [ -122.57891, 45.49746 ], [ -122.5788, 45.49746 ], [ -122.57873, 45.49736 ], [ -122.57873, 45.49726 ], [ -122.57873, 45.49725 ], [ -122.57873, 45.4971 ] ], [ [ -122.57912, 45.48109 ], [ -122.57912, 45.48105 ], [ -122.57913, 45.48099 ], [ -122.57934, 45.481 ], [ -122.5797, 45.481 ], [ -122.58132, 45.481 ] ] ] } },
{ "type": "Feature", "properties": { "itin_idx": 0, "totalTime": 1966, "walkTime": 472, "transitTime": 721, "waitingTime": 773, "walkDistance": 618.5298059666917, "leg_id": 1, "route_id": "9", "mode": "BUS", "fromStopCode": "4566", "fromName": "SE Powell & 112th", "toStopCode": "4695", "toName": "SE Powell & 82nd", "route_id_combo": "9 to 72", "route_long_name": "Powell Blvd", "dropdown_route": "9 - Powell Blvd", "route_color": "#66c2a5" }, "geometry": { "type": "LineString", "coordinates": [ [ -122.54854, 45.49652 ], [ -122.54867, 45.49651 ], [ -122.54871, 45.4965 ], [ -122.54933, 45.49646 ], [ -122.55008, 45.4964 ], [ -122.55019, 45.49639 ], [ -122.55031, 45.49638 ], [ -122.55079, 45.49634 ], [ -122.55096, 45.49633 ], [ -122.5512, 45.49631 ], [ -122.55129, 45.4963 ], [ -122.55156, 45.49628 ], [ -122.55166, 45.49628 ], [ -122.55239, 45.49622 ], [ -122.55259, 45.4962 ], [ -122.55289, 45.49618 ], [ -122.55317, 45.49616 ], [ -122.55325, 45.49615 ], [ -122.55335, 45.49614 ], [ -122.55357, 45.49613 ], [ -122.55439, 45.49607 ], [ -122.55483, 45.49603 ], [ -122.55513, 45.49601 ], [ -122.55594, 45.49595 ], [ -122.55596, 45.49594 ], [ -122.55606, 45.49594 ], [ -122.55623, 45.49592 ], [ -122.55763, 45.49581 ], [ -122.55775, 45.4958 ], [ -122.55797, 45.49579 ], [ -122.5583, 45.49576 ], [ -122.55865, 45.49574 ], [ -122.55882, 45.49572 ], [ -122.55893, 45.49572 ], [ -122.55902, 45.49573 ], [ -122.55912, 45.49574 ], [ -122.55926, 45.49576 ], [ -122.55947, 45.49581 ], [ -122.56061, 45.49613 ], [ -122.56066, 45.49615 ], [ -122.5609, 45.49621 ], [ -122.56153, 45.49639 ], [ -122.56169, 45.49643 ], [ -122.56185, 45.49647 ], [ -122.56207, 45.49654 ], [ -122.56234, 45.49662 ], [ -122.56247, 45.49665 ], [ -122.56267, 45.49671 ], [ -122.56281, 45.49674 ], [ -122.56298, 45.49683 ], [ -122.56346, 45.49697 ], [ -122.5638, 45.49707 ], [ -122.56396, 45.49711 ], [ -122.56444, 45.49725 ], [ -122.56446, 45.49725 ], [ -122.56459, 45.49729 ], [ -122.56475, 45.49733 ], [ -122.56483, 45.49735 ], [ -122.56509, 45.49739 ], [ -122.56539, 45.49742 ], [ -122.56568, 45.49743 ], [ -122.56618, 45.49743 ], [ -122.56644, 45.49744 ], [ -122.56697, 45.49744 ], [ -122.56737, 45.49744 ], [ -122.56785, 45.49744 ], [ -122.56823, 45.49744 ], [ -122.56833, 45.49744 ], [ -122.56837, 45.49744 ], [ -122.56851, 45.49744 ], [ -122.56868, 45.49743 ], [ -122.56911, 45.49743 ], [ -122.56929, 45.49743 ], [ -122.57027, 45.49744 ], [ -122.57062, 45.49744 ], [ -122.57166, 45.49744 ], [ -122.57183, 45.49744 ], [ -122.57234, 45.49744 ], [ -122.57239, 45.49744 ], [ -122.57261, 45.49744 ], [ -122.5728, 45.49744 ], [ -122.57302, 45.49745 ], [ -122.57331, 45.49745 ], [ -122.57341, 45.49745 ], [ -122.57348, 45.49745 ], [ -122.57373, 45.49745 ], [ -122.57388, 45.49745 ], [ -122.57397, 45.49745 ], [ -122.57406, 45.49745 ], [ -122.57415, 45.49745 ], [ -122.575, 45.49745 ], [ -122.57571, 45.49745 ], [ -122.57629, 45.49745 ], [ -122.5765, 45.49745 ], [ -122.57677, 45.49746 ], [ -122.57712, 45.49746 ], [ -122.5775, 45.49746 ], [ -122.57779, 45.49746 ], [ -122.57855, 45.49746 ], [ -122.57858, 45.49746 ], [ -122.57873, 45.49746 ], [ -122.57891, 45.49746 ], [ -122.57919, 45.49746 ] ] } },
{ "type": "Feature", "properties": { "itin_idx": 0, "totalTime": 1966, "walkTime": 472, "transitTime": 721, "waitingTime": 773, "walkDistance": 618.5298059666917, "leg_id": 3, "route_id": "72", "mode": "BUS", "fromStopCode": "8024", "fromName": "SE 82nd & Powell", "toStopCode": "8028", "toName": "SE 82nd & Ramona", "route_id_combo": "9 to 72", "route_long_name": "Killingsworth/82nd Ave", "dropdown_route": "72 - Killingsworth/82nd Ave", "route_color": "#fc8d62" }, "geometry": { "type": "LineString", "coordinates": [ [ -122.57873, 45.4971 ], [ -122.57874, 45.49693 ], [ -122.57874, 45.49687 ], [ -122.57874, 45.49651 ], [ -122.57875, 45.49619 ], [ -122.57875, 45.49595 ], [ -122.57875, 45.49589 ], [ -122.57875, 45.49577 ], [ -122.57875, 45.49572 ], [ -122.57876, 45.4955 ], [ -122.57876, 45.4952 ], [ -122.57877, 45.49481 ], [ -122.57877, 45.49451 ], [ -122.57878, 45.49412 ], [ -122.57878, 45.49375 ], [ -122.57878, 45.49354 ], [ -122.57878, 45.49346 ], [ -122.57879, 45.49299 ], [ -122.57879, 45.49276 ], [ -122.57879, 45.49266 ], [ -122.57879, 45.49258 ], [ -122.5788, 45.49243 ], [ -122.5788, 45.49223 ], [ -122.5788, 45.49217 ], [ -122.5788, 45.49208 ], [ -122.5788, 45.49195 ], [ -122.57881, 45.49166 ], [ -122.57881, 45.49154 ], [ -122.57881, 45.49141 ], [ -122.57881, 45.49122 ], [ -122.57881, 45.49108 ], [ -122.57881, 45.49096 ], [ -122.57882, 45.49065 ], [ -122.57882, 45.49062 ], [ -122.57882, 45.49047 ], [ -122.57882, 45.49037 ], [ -122.57881, 45.49026 ], [ -122.57881, 45.49018 ], [ -122.57881, 45.48998 ], [ -122.57882, 45.48988 ], [ -122.57882, 45.48979 ], [ -122.57882, 45.48952 ], [ -122.57883, 45.48937 ], [ -122.57883, 45.48919 ], [ -122.57883, 45.48902 ], [ -122.57884, 45.48866 ], [ -122.57884, 45.48851 ], [ -122.57884, 45.48845 ], [ -122.57885, 45.48819 ], [ -122.57886, 45.48808 ], [ -122.57886, 45.48796 ], [ -122.57887, 45.48758 ], [ -122.57887, 45.4874 ], [ -122.57887, 45.48737 ], [ -122.57888, 45.48716 ], [ -122.57888, 45.48708 ], [ -122.57888, 45.48705 ], [ -122.57889, 45.48693 ], [ -122.57889, 45.48667 ], [ -122.57889, 45.48658 ], [ -122.5789, 45.48653 ], [ -122.57889, 45.48652 ], [ -122.5789, 45.48642 ], [ -122.5789, 45.4864 ], [ -122.5789, 45.48631 ], [ -122.5789, 45.48612 ], [ -122.5789, 45.48604 ], [ -122.5789, 45.48594 ], [ -122.57891, 45.48591 ], [ -122.57891, 45.4858 ], [ -122.57891, 45.48552 ], [ -122.57891, 45.48536 ], [ -122.57891, 45.48522 ], [ -122.57891, 45.48509 ], [ -122.57892, 45.48492 ], [ -122.57892, 45.48487 ], [ -122.57893, 45.48432 ], [ -122.57893, 45.4841 ], [ -122.57894, 45.48394 ], [ -122.57894, 45.48389 ], [ -122.57894, 45.48381 ], [ -122.57894, 45.4837 ], [ -122.57894, 45.48361 ], [ -122.57894, 45.48355 ], [ -122.57895, 45.48354 ], [ -122.57895, 45.48347 ], [ -122.57895, 45.4834 ], [ -122.57895, 45.48338 ], [ -122.57895, 45.48333 ], [ -122.57896, 45.48317 ], [ -122.57896, 45.48307 ], [ -122.57896, 45.48293 ], [ -122.57896, 45.48281 ], [ -122.57896, 45.4827 ], [ -122.57896, 45.48265 ], [ -122.57897, 45.48237 ], [ -122.57897, 45.48217 ], [ -122.57897, 45.48214 ], [ -122.57898, 45.48186 ], [ -122.57898, 45.48168 ], [ -122.57898, 45.48161 ], [ -122.57899, 45.48105 ] ] } },
{ "type": "Feature", "properties": { "itin_idx": 1, "totalTime": 2889, "walkTime": 685, "transitTime": 1316, "waitingTime": 888, "walkDistance": 922.38747760622425, "leg_id": 0, "route_id": "WALK", "mode": "WALK", "fromStopCode": "", "fromName": "Origin", "toStopCode": "4566", "toName": "SE Powell & 112th", "route_id_combo": "9 to 14", "route_long_name": "WALK", "dropdown_route": "WALK - WALK", "route_color": "#bf5f58" }, "geometry": { "type": "MultiLineString", "coordinates": [ [ [ -122.54685, 45.49474 ], [ -122.54685, 45.49493 ], [ -122.54713, 45.49493 ], [ -122.5479, 45.49493 ], [ -122.54799, 45.49493 ], [ -122.54799, 45.49501 ], [ -122.54799, 45.49564 ], [ -122.54799, 45.49581 ], [ -122.54799, 45.49594 ], [ -122.54799, 45.496 ], [ -122.54799, 45.49604 ], [ -122.548, 45.49615 ], [ -122.54801, 45.49627 ], [ -122.54801, 45.49631 ], [ -122.54801, 45.49635 ], [ -122.54802, 45.49645 ], [ -122.54803, 45.49655 ], [ -122.54818, 45.49654 ], [ -122.54852, 45.49651 ], [ -122.54853, 45.49651 ] ], [ [ -122.61235, 45.49758 ], [ -122.61219, 45.49758 ], [ -122.61192, 45.49758 ], [ -122.61162, 45.49758 ], [ -122.61149, 45.49757 ], [ -122.61137, 45.49757 ], [ -122.61137, 45.49763 ], [ -122.61137, 45.49765 ], [ -122.61137, 45.49769 ], [ -122.61138, 45.49791 ], [ -122.61138, 45.49798 ] ], [ [ -122.58291, 45.48423 ], [ -122.58268, 45.48413 ], [ -122.58242, 45.48403 ], [ -122.58235, 45.484 ], [ -122.58236, 45.48389 ], [ -122.58236, 45.48381 ], [ -122.58236, 45.48348 ], [ -122.58237, 45.48313 ], [ -122.58237, 45.48306 ], [ -122.58198, 45.48306 ], [ -122.58155, 45.48306 ], [ -122.58155, 45.48299 ], [ -122.58156, 45.48243 ], [ -122.58157, 45.48236 ], [ -122.58157, 45.4823 ], [ -122.58157, 45.48167 ], [ -122.58158, 45.481 ], [ -122.58149, 45.481 ], [ -122.58132, 45.481 ] ] ] } },
{ "type": "Feature", "properties": { "itin_idx": 1, "totalTime": 2889, "walkTime": 685, "transitTime": 1316, "waitingTime": 888, "walkDistance": 922.38747760622425, "leg_id": 1, "route_id": "9", "mode": "BUS", "fromStopCode": "4566", "fromName": "SE Powell & 112th", "toStopCode": "4664", "toName": "SE Powell & 49th", "route_id_combo": "9 to 14", "route_long_name": "Powell Blvd", "dropdown_route": "9 - Powell Blvd", "route_color": "#66c2a5" }, "geometry": { "type": "LineString", "coordinates": [ [ -122.54854, 45.49652 ], [ -122.54867, 45.49651 ], [ -122.54871, 45.4965 ], [ -122.54933, 45.49646 ], [ -122.55008, 45.4964 ], [ -122.55019, 45.49639 ], [ -122.55031, 45.49638 ], [ -122.55079, 45.49634 ], [ -122.55096, 45.49633 ], [ -122.5512, 45.49631 ], [ -122.55129, 45.4963 ], [ -122.55156, 45.49628 ], [ -122.55166, 45.49628 ], [ -122.55239, 45.49622 ], [ -122.55259, 45.4962 ], [ -122.55289, 45.49618 ], [ -122.55317, 45.49616 ], [ -122.55325, 45.49615 ], [ -122.55335, 45.49614 ], [ -122.55357, 45.49613 ], [ -122.55439, 45.49607 ], [ -122.55483, 45.49603 ], [ -122.55513, 45.49601 ], [ -122.55594, 45.49595 ], [ -122.55596, 45.49594 ], [ -122.55606, 45.49594 ], [ -122.55623, 45.49592 ], [ -122.55763, 45.49581 ], [ -122.55775, 45.4958 ], [ -122.55797, 45.49579 ], [ -122.5583, 45.49576 ], [ -122.55865, 45.49574 ], [ -122.55882, 45.49572 ], [ -122.55893, 45.49572 ], [ -122.55902, 45.49573 ], [ -122.55912, 45.49574 ], [ -122.55926, 45.49576 ], [ -122.55947, 45.49581 ], [ -122.56061, 45.49613 ], [ -122.56066, 45.49615 ], [ -122.5609, 45.49621 ], [ -122.56153, 45.49639 ], [ -122.56169, 45.49643 ], [ -122.56185, 45.49647 ], [ -122.56207, 45.49654 ], [ -122.56234, 45.49662 ], [ -122.56247, 45.49665 ], [ -122.56267, 45.49671 ], [ -122.56281, 45.49674 ], [ -122.56298, 45.49683 ], [ -122.56346, 45.49697 ], [ -122.5638, 45.49707 ], [ -122.56396, 45.49711 ], [ -122.56444, 45.49725 ], [ -122.56446, 45.49725 ], [ -122.56459, 45.49729 ], [ -122.56475, 45.49733 ], [ -122.56483, 45.49735 ], [ -122.56509, 45.49739 ], [ -122.56539, 45.49742 ], [ -122.56568, 45.49743 ], [ -122.56618, 45.49743 ], [ -122.56644, 45.49744 ], [ -122.56697, 45.49744 ], [ -122.56737, 45.49744 ], [ -122.56785, 45.49744 ], [ -122.56823, 45.49744 ], [ -122.56833, 45.49744 ], [ -122.56837, 45.49744 ], [ -122.56851, 45.49744 ], [ -122.56868, 45.49743 ], [ -122.56911, 45.49743 ], [ -122.56929, 45.49743 ], [ -122.57027, 45.49744 ], [ -122.57062, 45.49744 ], [ -122.57166, 45.49744 ], [ -122.57183, 45.49744 ], [ -122.57234, 45.49744 ], [ -122.57239, 45.49744 ], [ -122.57261, 45.49744 ], [ -122.5728, 45.49744 ], [ -122.57302, 45.49745 ], [ -122.57331, 45.49745 ], [ -122.57341, 45.49745 ], [ -122.57348, 45.49745 ], [ -122.57373, 45.49745 ], [ -122.57388, 45.49745 ], [ -122.57397, 45.49745 ], [ -122.57406, 45.49745 ], [ -122.57415, 45.49745 ], [ -122.575, 45.49745 ], [ -122.57571, 45.49745 ], [ -122.57629, 45.49745 ], [ -122.5765, 45.49745 ], [ -122.57677, 45.49746 ], [ -122.57712, 45.49746 ], [ -122.5775, 45.49746 ], [ -122.57779, 45.49746 ], [ -122.57855, 45.49746 ], [ -122.57858, 45.49746 ], [ -122.57873, 45.49746 ], [ -122.57891, 45.49746 ], [ -122.57919, 45.49746 ], [ -122.57933, 45.49746 ], [ -122.57977, 45.49746 ], [ -122.57991, 45.49746 ], [ -122.58001, 45.49746 ], [ -122.58011, 45.49746 ], [ -122.58043, 45.49746 ], [ -122.58089, 45.49746 ], [ -122.581, 45.49746 ], [ -122.58175, 45.49747 ], [ -122.58196, 45.49747 ], [ -122.58219, 45.49747 ], [ -122.58226, 45.49747 ], [ -122.58262, 45.49747 ], [ -122.58293, 45.49747 ], [ -122.5833, 45.49747 ], [ -122.58389, 45.49747 ], [ -122.58421, 45.49747 ], [ -122.58439, 45.49747 ], [ -122.58462, 45.49747 ], [ -122.58487, 45.49747 ], [ -122.58571, 45.49747 ], [ -122.58585, 45.49747 ], [ -122.5862, 45.49747 ], [ -122.58634, 45.49747 ], [ -122.58647, 45.49747 ], [ -122.5868, 45.49747 ], [ -122.58691, 45.49747 ], [ -122.58698, 45.49747 ], [ -122.58711, 45.49747 ], [ -122.58773, 45.49747 ], [ -122.58779, 45.49747 ], [ -122.58802, 45.49747 ], [ -122.58841, 45.49748 ], [ -122.58881, 45.49748 ], [ -122.58905, 45.49748 ], [ -122.58912, 45.49748 ], [ -122.58919, 45.49748 ], [ -122.5893, 45.49748 ], [ -122.5895, 45.49748 ], [ -122.58955, 45.49748 ], [ -122.58977, 45.49748 ], [ -122.58983, 45.49748 ], [ -122.58991, 45.49748 ], [ -122.59, 45.49748 ], [ -122.59019, 45.49748 ], [ -122.5906, 45.49748 ], [ -122.59076, 45.49748 ], [ -122.59092, 45.49748 ], [ -122.59119, 45.49748 ], [ -122.59222, 45.49748 ], [ -122.59224, 45.49748 ], [ -122.59232, 45.49748 ], [ -122.5924, 45.49748 ], [ -122.59269, 45.49748 ], [ -122.5928, 45.49749 ], [ -122.59283, 45.49749 ], [ -122.59332, 45.49749 ], [ -122.59377, 45.49749 ], [ -122.59394, 45.49749 ], [ -122.59433, 45.49749 ], [ -122.59469, 45.49749 ], [ -122.59507, 45.49749 ], [ -122.59533, 45.49749 ], [ -122.59565, 45.49749 ], [ -122.59618, 45.4975 ], [ -122.59652, 45.4975 ], [ -122.59654, 45.4975 ], [ -122.59662, 45.4975 ], [ -122.59669, 45.4975 ], [ -122.59697, 45.4975 ], [ -122.59717, 45.49751 ], [ -122.59729, 45.49751 ], [ -122.59759, 45.49751 ], [ -122.59813, 45.49751 ], [ -122.59825, 45.49751 ], [ -122.59836, 45.49751 ], [ -122.59838, 45.49751 ], [ -122.59855, 45.49751 ], [ -122.59867, 45.49751 ], [ -122.59909, 45.49752 ], [ -122.59929, 45.49752 ], [ -122.59941, 45.49752 ], [ -122.59949, 45.49752 ], [ -122.59955, 45.49752 ], [ -122.59971, 45.49752 ], [ -122.59979, 45.49752 ], [ -122.59992, 45.49752 ], [ -122.60027, 45.49752 ], [ -122.60051, 45.49752 ], [ -122.60082, 45.49752 ], [ -122.60127, 45.49752 ], [ -122.60164, 45.49752 ], [ -122.60191, 45.49752 ], [ -122.60249, 45.49752 ], [ -122.6029, 45.49752 ], [ -122.60309, 45.49752 ], [ -122.60349, 45.49752 ], [ -122.60368, 45.49753 ], [ -122.60376, 45.49753 ], [ -122.60409, 45.49753 ], [ -122.60476, 45.49753 ], [ -122.60506, 45.49752 ], [ -122.60607, 45.49753 ], [ -122.60632, 45.49753 ], [ -122.60709, 45.49753 ], [ -122.60716, 45.49753 ], [ -122.60749, 45.49753 ], [ -122.60778, 45.49753 ], [ -122.60798, 45.49753 ], [ -122.60806, 45.49753 ], [ -122.60857, 45.49754 ], [ -122.60872, 45.49754 ], [ -122.60894, 45.49754 ], [ -122.60897, 45.49754 ], [ -122.60907, 45.49754 ], [ -122.60917, 45.49754 ], [ -122.60936, 45.49754 ], [ -122.60955, 45.49754 ], [ -122.61012, 45.49754 ], [ -122.6109, 45.49754 ], [ -122.61116, 45.49756 ], [ -122.61122, 45.49756 ], [ -122.61124, 45.49756 ], [ -122.61137, 45.49757 ], [ -122.61149, 45.49758 ], [ -122.61162, 45.49759 ], [ -122.61192, 45.49759 ], [ -122.61219, 45.49759 ], [ -122.61235, 45.49759 ] ] } },
{ "type": "Feature", "properties": { "itin_idx": 1, "totalTime": 2889, "walkTime": 685, "transitTime": 1316, "waitingTime": 888, "walkDistance": 922.38747760622425, "leg_id": 3, "route_id": "14", "mode": "BUS", "fromStopCode": "7657", "fromName": "SE 50th & Haig", "toStopCode": "14482", "toName": "7800 Block SE Foster", "route_id_combo": "9 to 14", "route_long_name": "Hawthorne/Foster", "dropdown_route": "14 - Hawthorne/Foster", "route_color": "#8da0cb" }, "geometry": { "type": "LineString", "coordinates": [ [ -122.61138, 45.49798 ], [ -122.61138, 45.49791 ], [ -122.61138, 45.49769 ], [ -122.61138, 45.49765 ], [ -122.61137, 45.49763 ], [ -122.61137, 45.49757 ], [ -122.61137, 45.49747 ], [ -122.61136, 45.49739 ], [ -122.61135, 45.49737 ], [ -122.61127, 45.49724 ], [ -122.6112, 45.49715 ], [ -122.61106, 45.49705 ], [ -122.61075, 45.49686 ], [ -122.61067, 45.4968 ], [ -122.61062, 45.49677 ], [ -122.61051, 45.4967 ], [ -122.61039, 45.49662 ], [ -122.61034, 45.49659 ], [ -122.6101, 45.49643 ], [ -122.60998, 45.49635 ], [ -122.60983, 45.49625 ], [ -122.60974, 45.49619 ], [ -122.60963, 45.49612 ], [ -122.60961, 45.49611 ], [ -122.60952, 45.49605 ], [ -122.60935, 45.49594 ], [ -122.60925, 45.49587 ], [ -122.60916, 45.49581 ], [ -122.60906, 45.49575 ], [ -122.60896, 45.49569 ], [ -122.60892, 45.49567 ], [ -122.60875, 45.49557 ], [ -122.60856, 45.49547 ], [ -122.60844, 45.49541 ], [ -122.60745, 45.49488 ], [ -122.60718, 45.49475 ], [ -122.60699, 45.49466 ], [ -122.60653, 45.49447 ], [ -122.60629, 45.49436 ], [ -122.60601, 45.49424 ], [ -122.6056, 45.49407 ], [ -122.6055, 45.49402 ], [ -122.60539, 45.49398 ], [ -122.60521, 45.4939 ], [ -122.60514, 45.49387 ], [ -122.60489, 45.49376 ], [ -122.60471, 45.49369 ], [ -122.60453, 45.4936 ], [ -122.60434, 45.4935 ], [ -122.6041, 45.49337 ], [ -122.60398, 45.4933 ], [ -122.60388, 45.49324 ], [ -122.60372, 45.49316 ], [ -122.6036, 45.49309 ], [ -122.6035, 45.49303 ], [ -122.60327, 45.49291 ], [ -122.60299, 45.49275 ], [ -122.60237, 45.49241 ], [ -122.60197, 45.49219 ], [ -122.60183, 45.49211 ], [ -122.60124, 45.49178 ], [ -122.60114, 45.49173 ], [ -122.60101, 45.49165 ], [ -122.60093, 45.49161 ], [ -122.60058, 45.49141 ], [ -122.6004, 45.49132 ], [ -122.60005, 45.49112 ], [ -122.59964, 45.4909 ], [ -122.59958, 45.49086 ], [ -122.5994, 45.49076 ], [ -122.59928, 45.4907 ], [ -122.59915, 45.49065 ], [ -122.59901, 45.49058 ], [ -122.59863, 45.49043 ], [ -122.59851, 45.49038 ], [ -122.59839, 45.49032 ], [ -122.59832, 45.49029 ], [ -122.59803, 45.49017 ], [ -122.598, 45.49016 ], [ -122.59763, 45.49 ], [ -122.59746, 45.48992 ], [ -122.59698, 45.48974 ], [ -122.5969, 45.4897 ], [ -122.59679, 45.48966 ], [ -122.59645, 45.48952 ], [ -122.59631, 45.48946 ], [ -122.59618, 45.4894 ], [ -122.59611, 45.48937 ], [ -122.59604, 45.48935 ], [ -122.59592, 45.4893 ], [ -122.59584, 45.48926 ], [ -122.59543, 45.48909 ], [ -122.59491, 45.48888 ], [ -122.59443, 45.48868 ], [ -122.59434, 45.48864 ], [ -122.59426, 45.48861 ], [ -122.59379, 45.48841 ], [ -122.59378, 45.4884 ], [ -122.59354, 45.4883 ], [ -122.59316, 45.48814 ], [ -122.59306, 45.4881 ], [ -122.59297, 45.48807 ], [ -122.59284, 45.48802 ], [ -122.59278, 45.48799 ], [ -122.59275, 45.48798 ], [ -122.59266, 45.48794 ], [ -122.59126, 45.48736 ], [ -122.5903, 45.48696 ], [ -122.59019, 45.48692 ], [ -122.58967, 45.48671 ], [ -122.58937, 45.48659 ], [ -122.58925, 45.48654 ], [ -122.58915, 45.4865 ], [ -122.58904, 45.48646 ], [ -122.58869, 45.48633 ], [ -122.58859, 45.4863 ], [ -122.58811, 45.48613 ], [ -122.58794, 45.48608 ], [ -122.5877, 45.48599 ], [ -122.58712, 45.4858 ], [ -122.58705, 45.48578 ], [ -122.587, 45.48576 ], [ -122.58686, 45.48571 ], [ -122.5867, 45.48566 ], [ -122.58661, 45.48563 ], [ -122.58622, 45.4855 ], [ -122.58601, 45.48542 ], [ -122.58541, 45.48522 ], [ -122.58535, 45.4852 ], [ -122.58433, 45.48486 ], [ -122.58406, 45.48477 ], [ -122.58364, 45.48462 ], [ -122.58355, 45.48459 ], [ -122.58324, 45.48447 ], [ -122.58314, 45.48443 ], [ -122.58284, 45.48432 ] ] } }
]
}
