{
"type": "FeatureCollection",
"name": "origin_destination_points",
"crs": { "type": "name", "properties": { "name": "urn:ogc:def:crs:OGC:1.3:CRS84" } },
"features": [
{ "type": "Feature", "properties": { "point_type": "origin", "points_str": "45.475208, -122.706719" }, "geometry": { "type": "Point", "coordinates": [ -122.70671894111041, 45.475207994860334 ] } },
{ "type": "Feature", "properties": { "point_type": "destination", "points_str": "45.588947, -122.756818" }, "geometry": { "type": "Point", "coordinates": [ -122.756818473029711, 45.5889468708842 ] } }
]
}
